ONEWEB-0535             
1 54147U 22138AL  24249.55684161  .00000083  00000+0  17605-3 0  9996
2 54147  87.9088  74.1820 0002007  86.0942 274.0420 13.19724082 92022
ONEWEB-0536             
1 54148U 22138AM  24248.99933340  .00000100  00000+0  21296-3 0  9991
2 54148  87.9217  43.8101 0002594  78.3385 281.8039 13.20767434 93470
ONEWEB-0527             
1 54642U 22166A   24249.84758176  .00000150  00000+0  33199-3 0  9998
2 54642  87.9353  13.2773 0001831  99.3833 260.7508 13.21828375 86203
ONEWEB-0528             
1 54643U 22166B   24249.32402407  .00000019  00000+0  15278-4 0  9998
2 54643  87.9354  13.3708 0001732 103.0013 257.1314 13.21822290 85694
ONEWEB-0539             
1 54644U 22166C   24249.28459183 -.00000288  00000+0 -72945-3 0  9990
2 54644  87.9354  13.3813 0001636  96.5649 263.5671 13.21824982 85682
ONEWEB-0540             
1 54645U 22166D   24249.80896091  .00000039  00000+0  62504-4 0  9995
2 54645  87.9350  13.2917 0001486  94.0290 266.1014 13.21827086 86219
ONEWEB-0542             
1 54646U 22166E   24249.29407349  .00000132  00000+0  28843-3 0  9994
2 54646  87.9354  13.3789 0001645  82.2115 277.9206 13.21824584 85687
